IRIDIUM 166             
1 43570U 18061B   23278.46587183  .00000182  00000+0  58033-4 0  9992
2 43570  86.3917 108.7257 0001867  87.7946 272.3464 14.34217532272111
IRIDIUM 158             
1 43571U 18061C   23277.94577458  .00000169  00000+0  53111-4 0  9996
2 43571  86.3918 108.9523 0001931  97.5199 262.6216 14.34217771272002
IRIDIUM 165             
1 43572U 18061D   23277.90138122  .00000164  00000+0  51439-4 0  9990
2 43572  86.3920 108.9987 0001934  98.8752 261.2663 14.34216633272021
IRIDIUM 155             
1 43573U 18061E   23277.93309400  .00000176  00000+0  55888-4 0  9998
2 43573  86.3917 108.9030 0002110  80.6668 279.4766 14.34217238271991
IRIDIUM 154             
1 43574U 18061F   23278.05359820  .00000171  00000+0  54079-4 0  9990
2 43574  86.3920 108.9379 0002337  91.5746 268.5718 14.34217135272062
IRIDIUM 163             
1 43575U 18061G   23277.89501794  .00000168  00000+0  52928-4 0  9998
2 43575  86.3919 108.9504 0002339  90.6840 269.4624 14.34218042272017
IRIDIUM 156             
1 43576U 18061H   23277.93943491  .00000169  00000+0  53116-4 0  9999
2 43576  86.3918 108.9377 0001868  86.8038 273.3372 14.34217653272018
IRIDIUM 164             
1 43577U 18061J   23278.05994460  .00000168  00000+0  53076-4 0  9990
2 43577  86.3918 108.9123 0001984  92.2986 267.8437 14.34216807272076
